[
    {
        "Altitude(m)": 564598.6071414556,
        "Argument of Periapsis(deg)": 0.019868973332140504,
        "Eccentricity": 0.0,
        "Inclination(deg)": 53.0,
        "Latitude(deg)": -35.31644296948734,
        "Longitude(deg)": -4.4500515204292626,
        "Mean Anomaly(deg)": -46.088821397267225,
        "RAAN(deg)": 129.97043010558406,
        "Satellite Name": "Starlink Shell 1 589",
        "Satellite Number": 589,
        "Semi-Major Axis(m)": 6931778.249405717,
        "Time(s)": 570
    },
    {
        "Altitude(m)": 564425.9313457469,
        "Argument of Periapsis(deg)": 0.02021755181165174,
        "Eccentricity": 0.0,
        "Inclination(deg)": 53.0,
        "Latitude(deg)": -34.89043071590534,
        "Longitude(deg)": -3.9311477396658012,
        "Mean Anomaly(deg)": -45.46199019371054,
        "RAAN(deg)": 129.96991133550657,
        "Satellite Name": "Starlink Shell 1 589",
        "Satellite Number": 589,
        "Semi-Major Axis(m)": 6931778.249405717,
        "Time(s)": 580
    },
    {
        "Altitude(m)": 564252.6846719804,
        "Argument of Periapsis(deg)": 0.020566130291162974,
        "Eccentricity": 0.0,
        "Inclination(deg)": 53.0,
        "Latitude(deg)": -34.46182191734988,
        "Longitude(deg)": -3.417994198597755,
        "Mean Anomaly(deg)": -44.83515899015384,
        "RAAN(deg)": 129.96939256542913,
        "Satellite Name": "Starlink Shell 1 589",
        "Satellite Number": 589,
        "Semi-Major Axis(m)": 6931778.249405717,
        "Time(s)": 590
    },
    {
        "Altitude(m)": 564078.9333789579,
        "Argument of Periapsis(deg)": 0.020914708770674213,
        "Eccentricity": 0.0,
        "Inclination(deg)": 53.0,
        "Latitude(deg)": -34.0306820801775,
        "Longitude(deg)": -2.9104751098775727,
        "Mean Anomaly(deg)": -44.20832778659709,
        "RAAN(deg)": 129.96887379535164,
        "Satellite Name": "Starlink Shell 1 589",
        "Satellite Number": 589,
        "Semi-Major Axis(m)": 6931778.249405717,
        "Time(s)": 600
    },
    {
        "Altitude(m)": 563904.7438053323,
        "Argument of Periapsis(deg)": 0.021263287250185448,
        "Eccentricity": 0.0,
        "Inclination(deg)": 53.0,
        "Latitude(deg)": -33.59707523696563,
        "Longitude(deg)": -2.408475540790556,
        "Mean Anomaly(deg)": -43.58149658304041,
        "RAAN(deg)": 129.96835502527415,
        "Satellite Name": "Starlink Shell 1 589",
        "Satellite Number": 589,
        "Semi-Major Axis(m)": 6931778.249405717,
        "Time(s)": 610
    },
    {
        "Altitude(m)": 563730.1823399225,
        "Argument of Periapsis(deg)": 0.021611865729696686,
        "Eccentricity": 0.0,
        "Inclination(deg)": 53.0,
        "Latitude(deg)": -33.161063978460874,
        "Longitude(deg)": -1.9118809795707095,
        "Mean Anomaly(deg)": -42.95466537948367,
        "RAAN(deg)": 129.9678362551967,
        "Satellite Name": "Starlink Shell 1 589",
        "Satellite Number": 589,
        "Semi-Major Axis(m)": 6931778.249405717,
        "Time(s)": 620
    },
    {
        "Altitude(m)": 563555.3153920654,
        "Argument of Periapsis(deg)": 0.02196044420920792,
        "Eccentricity": 0.0,
        "Inclination(deg)": 53.0,
        "Latitude(deg)": -32.7227094857813,
        "Longitude(deg)": -1.420578575028663,
        "Mean Anomaly(deg)": -42.32783417592697,
        "RAAN(deg)": 129.96731748511922,
        "Satellite Name": "Starlink Shell 1 589",
        "Satellite Number": 589,
        "Semi-Major Axis(m)": 6931778.249405717,
        "Time(s)": 630
    },
    {
        "Altitude(m)": 563380.2093618937,
        "Argument of Periapsis(deg)": 0.02230902268871916,
        "Eccentricity": 0.0,
        "Inclination(deg)": 53.0,
        "Latitude(deg)": -32.282071562769254,
        "Longitude(deg)": -0.9344558475394855,
        "Mean Anomaly(deg)": -41.70100297237029,
        "RAAN(deg)": 129.96679871504173,
        "Satellite Name": "Starlink Shell 1 589",
        "Satellite Number": 589,
        "Semi-Major Axis(m)": 6931778.249405717,
        "Time(s)": 640
    },
    {
        "Altitude(m)": 563204.9306106522,
        "Argument of Periapsis(deg)": 0.022657601168230398,
        "Eccentricity": 0.0,
        "Inclination(deg)": 53.0,
        "Latitude(deg)": -31.839208668418173,
        "Longitude(deg)": -0.45340191476157704,
        "Mean Anomaly(deg)": -41.074171768813486,
        "RAAN(deg)": 129.96627994496427,
        "Satellite Name": "Starlink Shell 1 589",
        "Satellite Number": 589,
        "Semi-Major Axis(m)": 6931778.249405717,
        "Time(s)": 650
    },
    {
        "Altitude(m)": 563029.5454309616,
        "Argument of Periapsis(deg)": 0.023006179647741636,
        "Eccentricity": 0.0,
        "Inclination(deg)": 53.0,
        "Latitude(deg)": -31.39417794928843,
        "Longitude(deg)": 0.02269296990322339,
        "Mean Anomaly(deg)": -40.44734056525684,
        "RAAN(deg)": 129.9657611748868,
        "Satellite Name": "Starlink Shell 1 589",
        "Satellite Number": 589,
        "Semi-Major Axis(m)": 6931778.249405717,
        "Time(s)": 660
    },
    {
        "Altitude(m)": 562854.1200171697,
        "Argument of Periapsis(deg)": 0.023354758127252868,
        "Eccentricity": 0.0,
        "Inclination(deg)": 53.0,
        "Latitude(deg)": -30.947035271842594,
        "Longitude(deg)": 0.4939378847215631,
        "Mean Anomaly(deg)": -39.82050936170007,
        "RAAN(deg)": 129.96524240480932,
        "Satellite Name": "Starlink Shell 1 589",
        "Satellite Number": 589,
        "Semi-Major Axis(m)": 6931778.249405717,
        "Time(s)": 670
    },
    {
        "Altitude(m)": 562678.7204356905,
        "Argument of Periapsis(deg)": 0.023703336606764106,
        "Eccentricity": 0.0,
        "Inclination(deg)": 53.0,
        "Latitude(deg)": -30.497835254642272,
        "Longitude(deg)": 0.9604401996378737,
        "Mean Anomaly(deg)": -39.193678158143406,
        "RAAN(deg)": 129.96472363473185,
        "Satellite Name": "Starlink Shell 1 589",
        "Satellite Number": 589,
        "Semi-Major Axis(m)": 6931778.249405717,
        "Time(s)": 680
    },
    {
        "Altitude(m)": 562503.4125953871,
        "Argument of Periapsis(deg)": 0.024051915086275345,
        "Eccentricity": 0.0,
        "Inclination(deg)": 53.0,
        "Latitude(deg)": -30.046631300341673,
        "Longitude(deg)": 1.4223060542536212,
        "Mean Anomaly(deg)": -38.56684695458671,
        "RAAN(deg)": 129.9642048646544,
        "Satellite Name": "Starlink Shell 1 589",
        "Satellite Number": 589,
        "Semi-Major Axis(m)": 6931778.249405717,
        "Time(s)": 690
    },
    {
        "Altitude(m)": 562328.262218067,
        "Argument of Periapsis(deg)": 0.024400493565786583,
        "Eccentricity": 0.0,
        "Inclination(deg)": 53.0,
        "Latitude(deg)": -29.593475627432237,
        "Longitude(deg)": 1.8796408405406424,
        "Mean Anomaly(deg)": -37.940015751029925,
        "RAAN(deg)": 129.9636860945769,
        "Satellite Name": "Starlink Shell 1 589",
        "Satellite Number": 589,
        "Semi-Major Axis(m)": 6931778.249405717,
        "Time(s)": 700
    },
    {
        "Altitude(m)": 562153.334808992,
        "Argument of Periapsis(deg)": 0.024749072045297815,
        "Eccentricity": 0.0,
        "Inclination(deg)": 53.0,
        "Latitude(deg)": -29.138419301694768,
        "Longitude(deg)": 2.332548177076656,
        "Mean Anomaly(deg)": -37.31318454747323,
        "RAAN(deg)": 129.96316732449944,
        "Satellite Name": "Starlink Shell 1 589",
        "Satellite Number": 589,
        "Semi-Major Axis(m)": 6931778.249405717,
        "Time(s)": 710
    },
    {
        "Altitude(m)": 561978.6956275328,
        "Argument of Periapsis(deg)": 0.025097650524809053,
        "Eccentricity": 0.0,
        "Inclination(deg)": 53.0,
        "Latitude(deg)": -28.68151226731419,
        "Longitude(deg)": 2.7811304002284394,
        "Mean Anomaly(deg)": -36.68635334391647,
        "RAAN(deg)": 129.96264855442197,
        "Satellite Name": "Starlink Shell 1 589",
        "Satellite Number": 589,
        "Semi-Major Axis(m)": 6931778.249405717,
        "Time(s)": 720
    },
    {
        "Altitude(m)": 561804.4096578787,
        "Argument of Periapsis(deg)": 0.02544622900432029,
        "Eccentricity": 0.0,
        "Inclination(deg)": 53.0,
        "Latitude(deg)": -28.222803377626207,
        "Longitude(deg)": 3.2254890591034537,
        "Mean Anomaly(deg)": -36.0595221403598,
        "RAAN(deg)": 129.96212978434448,
        "Satellite Name": "Starlink Shell 1 589",
        "Satellite Number": 589,
        "Semi-Major Axis(m)": 6931778.249405717,
        "Time(s)": 730
    },
    {
        "Altitude(m)": 561630.5415799106,
        "Argument of Periapsis(deg)": 0.02579480748383153,
        "Eccentricity": 0.0,
        "Inclination(deg)": 53.0,
        "Latitude(deg)": -27.762340425466533,
        "Longitude(deg)": 3.665723901112404,
        "Mean Anomaly(deg)": -35.432690936803155,
        "RAAN(deg)": 129.96161101426702,
        "Satellite Name": "Starlink Shell 1 589",
        "Satellite Number": 589,
        "Semi-Major Axis(m)": 6931778.249405717,
        "Time(s)": 740
    },
    {
        "Altitude(m)": 561457.1557401876,
        "Argument of Periapsis(deg)": 0.026143385963342765,
        "Eccentricity": 0.0,
        "Inclination(deg)": 53.0,
        "Latitude(deg)": -27.30017017309297,
        "Longitude(deg)": 4.101933373617566,
        "Mean Anomaly(deg)": -34.80585973324634,
        "RAAN(deg)": 129.96109224418956,
        "Satellite Name": "Starlink Shell 1 589",
        "Satellite Number": 589,
        "Semi-Major Axis(m)": 6931778.249405717,
        "Time(s)": 750
    }
]